IRIDIUM 39              
1 25042U 97069D   25116.06649031  .00001444  00000+0  37368-3 0  9990
2 25042  86.3929 233.4598 0019906 118.5326 241.7886 14.49144547441678
IRIDIUM 38              
1 25043U 97069E   25115.77473204  .00000989  00000+0  32034-3 0  9993
2 25043  86.3937 255.2002 0000261 123.8599 236.2624 14.38062030438427
IRIDIUM 44              
1 25078U 97077B   25115.81267168  .00000900  00000+0  27856-3 0  9994
2 25078  86.3958 243.3457 0002441 142.6504 217.4866 14.40191577436190
IRIDIUM 45              
1 25104U 97082A   25115.36982262  .00023255  00000+0  87439-3 0  9990
2 25104  86.3566  73.4948 0122436 167.6633 192.7657 15.20170909444264
IRIDIUM 51              
1 25262U 98018A   25115.91249559  .00050900  00000+0  12494-2 0  9996
2 25262  86.3819  81.6381 0098565  90.9686 270.2860 15.35507340438993
IRIDIUM 57              
1 25273U 98019B   25115.69690635  .00000590  00000+0  19694-3 0  9999
2 25273  86.3999 167.2460 0002200  93.4714 266.6734 14.35853830417256
